{"type": "FeatureCollection", "features": [ {"type": "Feature", "properties": {"norad_id": 30876, "name": "FENGYUN 1C DEB", "group": "fengyun-1c-debris", "lat": 47.61950147844044, "lon": 152.1392182212376, "alt_km": 940.9104695165615, "timestamp": "2025-12-02T21:34:01.550314+00:00", "meta": {"OBJECT_NAME": "FENGYUN 1C DEB", "OBJECT_ID": "1999-025AXN", "EPOCH": "2025-12-01T11:13:48.307872", "MEAN_MOTION": 13.99150697, "ECCENTRICITY": 0.00670763, "INCLINATION": 98.8091, "RA_OF_ASC_NODE": 320.9794, "ARG_OF_PERICENTER": 308.8364, "MEAN_ANOMALY": 180.3755, "EPHEMERIS_TYPE": 0, "CLASSIFICATION_TYPE": "U", "NORAD_CAT_ID": 30876, "ELEMENT_SET_NO": 999, "REV_AT_EPOCH": 95552, "BSTAR": 0.00029379137, "MEAN_MOTION_DOT": 3.91e-06, "MEAN_MOTION_DDOT": 0}, "tle": {"line1": "1 30876U 99025AXN 25335.46792023  .00000391  00000+0  29379-3 0  9995", "line2": "2 30876  98.8091 320.9794 0067076 308.8364 180.3755 13.99150697955528"}}, "geometry": {"type": "Point", "coordinates": [152.1392182212376, 47.61950147844044]}}, {"type": "Feature", "properties": {"norad_id": 30878, "name": "FENGYUN 1C DEB", "group": "fengyun-1c-debris", "lat": 21.009004215869556, "lon": 162.02816937851716, "alt_km": 880.9415250845659, "timestamp": "2025-12-02T21:34:01.550324+00:00", "meta": {"OBJECT_NAME": "FENGYUN 1C DEB", "OBJECT_ID": "1999-025AXQ", "EPOCH": "2025-12-02T11:20:36.400992", "MEAN_MOTION": 14.11849941, "ECCENTRICITY": 0.0040343, "INCLINATION": 98.7214, "RA_OF_ASC_NODE": 338.2344, "ARG_OF_PERICENTER": 324.0393, "MEAN_ANOMALY": 190.7849, "EPHEMERIS_TYPE": 0, "CLASSIFICATION_TYPE": "U", "NORAD_CAT_ID": 30878, "ELEMENT_SET_NO": 999, "REV_AT_EPOCH": 96222, "BSTAR": 0.00075829, "MEAN_MOTION_DOT": 1.352e-05, "MEAN_MOTION_DDOT": 0}, "tle": {"line1": "1 30878U 99025AXQ 25336.47264353  .00001352  00000+0  75829-3 0  9998", "line2": "2 30878  98.7214 338.2344 0040343 324.0393 190.7849 14.11849941962225"}}, "geometry": {"type": "Point", "coordinates": [162.02816937851716, 21.009004215869556]}}, {"type": "Feature", "properties": {"norad_id": 30879, "name": "FENGYUN 1C DEB", "group": "fengyun-1c-debris", "lat": -3.504129201106891, "lon": -167.2556854690654, "alt_km": 574.69889461605, "timestamp": "2025-12-02T21:34:01.550334+00:00", "meta": {"OBJECT_NAME": "FENGYUN 1C DEB", "OBJECT_ID": "1999-025AXR", "EPOCH": "2025-11-29T13:20:03.064992", "MEAN_MOTION": 14.66160389, "ECCENTRICITY": 0.02066647, "INCLINATION": 99.3538, "RA_OF_ASC_NODE": 188.3578, "ARG_OF_PERICENTER": 320.082, "MEAN_ANOMALY": 38.5336, "EPHEMERIS_TYPE": 0, "CLASSIFICATION_TYPE": "U", "NORAD_CAT_ID": 30879, "ELEMENT_SET_NO": 999, "REV_AT_EPOCH": 61746, "BSTAR": 0.0042196253, "MEAN_MOTION_DOT": 0.00031978, "MEAN_MOTION_DDOT": 0}, "tle": {"line1": "1 30879U 99025AXR 25333.55559103  .00031978  00000+0  42196-2 0  9992", "line2": "2 30879  99.3538 188.3578 0206664 320.0820  38.5336 14.66160389617461"}}, "geometry": {"type": "Point", "coordinates": [-167.2556854690654, -3.504129201106891]}}, {"type": "Feature", "properties": {"norad_id": 30880, "name": "FENGYUN 1C DEB", "group": "fengyun-1c-debris", "lat": -7.2701444887210425, "lon": -132.4190528190209, "alt_km": 800.6549920478019, "timestamp": "2025-12-02T21:34:01.550345+00:00", "meta": {"OBJECT_NAME": "FENGYUN 1C DEB", "OBJECT_ID": "1999-025AXS", "EPOCH": "2025-12-02T03:50:50.993952", "MEAN_MOTION": 14.25489811, "ECCENTRICITY": 0.00228452, "INCLINATION": 98.7967, "RA_OF_ASC_NODE": 47.9725, "ARG_OF_PERICENTER": 136.7536, "MEAN_ANOMALY": 223.5441, "EPHEMERIS_TYPE": 0, "CLASSIFICATION_TYPE": "U", "NORAD_CAT_ID": 30880, "ELEMENT_SET_NO": 999, "REV_AT_EPOCH": 96563, "BSTAR": 0.0015995783, "MEAN_MOTION_DOT": 3.747e-05, "MEAN_MOTION_DDOT": 0}, "tle": {"line1": "1 30880U 99025AXS 25336.16031243  .00003747  00000+0  15996-2 0  9995", "line2": "2 30880  98.7967  47.9725 0022845 136.7536 223.5441 14.25489811965636"}}, "geometry": {"type": "Point", "coordinates": [-132.4190528190209, -7.2701444887210425]}}, {"type": "Feature", "properties": {"norad_id": 30882, "name": "FENGYUN 1C DEB", "group": "fengyun-1c-debris", "lat": 38.62893200830323, "lon": 25.829271229253177, "alt_km": 516.0301289621993, "timestamp": "2025-12-02T21:34:01.550354+00:00", "meta": {"OBJECT_NAME": "FENGYUN 1C DEB", "OBJECT_ID": "1999-025AXU", "EPOCH": "2025-12-02T10:05:08.056032", "MEAN_MOTION": 14.8637171, "ECCENTRICITY": 0.0154631, "INCLINATION": 97.9451, "RA_OF_ASC_NODE": 31.7588, "ARG_OF_PERICENTER": 74.4841, "MEAN_ANOMALY": 287.3388, "EPHEMERIS_TYPE": 0, "CLASSIFICATION_TYPE": "U", "NORAD_CAT_ID": 30882, "ELEMENT_SET_NO": 999, "REV_AT_EPOCH": 99501, "BSTAR": 0.0011, "MEAN_MOTION_DOT": 0.00012019, "MEAN_MOTION_DDOT": 0}, "tle": {"line1": "1 30882U 99025AXU 25336.42023213  .00012019  00000+0  11000-2 0  9998", "line2": "2 30882  97.9451  31.7588 0154631  74.4841 287.3388 14.86371710995019"}}, "geometry": {"type": "Point", "coordinates": [25.829271229253177, 38.62893200830323]}}, {"type": "Feature", "properties": {"norad_id": 30883, "name": "FENGYUN 1C DEB", "group": "fengyun-1c-debris", "lat": 80.77246100770351, "lon": -50.284548769648474, "alt_km": 910.0419783343696, "timestamp": "2025-12-02T21:34:01.550364+00:00", "meta": {"OBJECT_NAME": "FENGYUN 1C DEB", "OBJECT_ID": "1999-025AXV", "EPOCH": "2025-12-01T20:32:13.780320", "MEAN_MOTION": 14.14534575, "ECCENTRICITY": 0.01113953, "INCLINATION": 98.3633, "RA_OF_ASC_NODE": 13.6292, "ARG_OF_PERICENTER": 245.4986, "MEAN_ANOMALY": 293.2714, "EPHEMERIS_TYPE": 0, "CLASSIFICATION_TYPE": "U", "NORAD_CAT_ID": 30883, "ELEMENT_SET_NO": 999, "REV_AT_EPOCH": 96763, "BSTAR": 0.0002144815, "MEAN_MOTION_DOT": 3.96e-06, "MEAN_MOTION_DDOT": 0}, "tle": {"line1": "1 30883U 99025AXV 25335.85571505  .00000396  00000+0  21448-3 0  9990", "line2": "2 30883  98.3633  13.6292 0111395 245.4986 293.2714 14.14534575967635"}}, "geometry": {"type": "Point", "coordinates": [-50.284548769648474, 80.77246100770351]}}, {"type": "Feature", "properties": {"norad_id": 30884, "name": "FENGYUN 1C DEB", "group": "fengyun-1c-debris", "lat": 55.15968035423904, "lon": 162.7968745933749, "alt_km": 667.9891516534035, "timestamp": "2025-12-02T21:34:01.550374+00:00", "meta": {"OBJECT_NAME": "FENGYUN 1C DEB", "OBJECT_ID": "1999-025AXW", "EPOCH": "2025-12-02T11:13:45.179328", "MEAN_MOTION": 14.73012746, "ECCENTRICITY": 0.0068415, "INCLINATION": 98.8898, "RA_OF_ASC_NODE": 329.3309, "ARG_OF_PERICENTER": 7.761, "MEAN_ANOMALY": 352.4637, "EPHEMERIS_TYPE": 0, "CLASSIFICATION_TYPE": "U", "NORAD_CAT_ID": 30884, "ELEMENT_SET_NO": 999, "REV_AT_EPOCH": 98510, "BSTAR": 0.0025567, "MEAN_MOTION_DOT": 0.00017023, "MEAN_MOTION_DDOT": 0}, "tle": {"line1": "1 30884U 99025AXW 25336.46788402  .00017023  00000+0  25567-2 0  9995", "line2": "2 30884  98.8898 329.3309 0068415   7.7610 352.4637 14.73012746985107"}}, "geometry": {"type": "Point", "coordinates": [162.7968745933749, 55.15968035423904]}}, {"type": "Feature", "properties": {"norad_id": 30885, "name": "FENGYUN 1C DEB", "group": "fengyun-1c-debris", "lat": -63.37435346232123, "lon": -164.77305775848137, "alt_km": 708.7562514816118, "timestamp": "2025-12-02T21:34:01.550384+00:00", "meta": {"OBJECT_NAME": "FENGYUN 1C DEB", "OBJECT_ID": "1999-025AXX", "EPOCH": "2025-12-02T09:10:36.253056", "MEAN_MOTION": 14.49082184, "ECCENTRICITY": 0.005469, "INCLINATION": 99.0268, "RA_OF_ASC_NODE": 176.1876, "ARG_OF_PERICENTER": 250.5438, "MEAN_ANOMALY": 232.5477, "EPHEMERIS_TYPE": 0, "CLASSIFICATION_TYPE": "U", "NORAD_CAT_ID": 30885, "ELEMENT_SET_NO": 999, "REV_AT_EPOCH": 96827, "BSTAR": 0.0033372, "MEAN_MOTION_DOT": 0.0001289, "MEAN_MOTION_DDOT": 0}, "tle": {"line1": "1 30885U 99025AXX 25336.38236404  .00012890  00000+0  33372-2 0  9997", "line2": "2 30885  99.0268 176.1876 0054690 250.5438 232.5477 14.49082184968270"}}, "geometry": {"type": "Point", "coordinates": [-164.77305775848137, -63.37435346232123]}}, {"type": "Feature", "properties": {"norad_id": 30886, "name": "FENGYUN 1C DEB", "group": "fengyun-1c-debris", "lat": 45.203912451499036, "lon": -139.97257762193826, "alt_km": 787.6649369406487, "timestamp": "2025-12-02T21:34:01.550394+00:00", "meta": {"OBJECT_NAME": "FENGYUN 1C DEB", "OBJECT_ID": "1999-025AXY", "EPOCH": "2025-11-30T15:20:20.269536", "MEAN_MOTION": 14.22632993, "ECCENTRICITY": 0.0035658, "INCLINATION": 99.2091, "RA_OF_ASC_NODE": 227.071, "ARG_OF_PERICENTER": 67.4886, "MEAN_ANOMALY": 293.0059, "EPHEMERIS_TYPE": 0, "CLASSIFICATION_TYPE": "U", "NORAD_CAT_ID": 30886, "ELEMENT_SET_NO": 999, "REV_AT_EPOCH": 96224, "BSTAR": 0.0019032099, "MEAN_MOTION_DOT": 4.238e-05, "MEAN_MOTION_DDOT": 0}, "tle": {"line1": "1 30886U 99025AXY 25334.63912349  .00004238  00000+0  19032-2 0  9997", "line2": "2 30886  99.2091 227.0710 0035658  67.4886 293.0059 14.22632993962244"}}, "geometry": {"type": "Point", "coordinates": [-139.97257762193826, 45.203912451499036]}}, {"type": "Feature", "properties": {"norad_id": 30887, "name": "FENGYUN 1C DEB", "group": "fengyun-1c-debris", "lat": -44.88263438155238, "lon": 41.332500794063755, "alt_km": 561.7919150595235, "timestamp": "2025-12-02T21:34:01.550404+00:00", "meta": {"OBJECT_NAME": "FENGYUN 1C DEB", "OBJECT_ID": "1999-025AXZ", "EPOCH": "2025-12-02T10:07:55.748928", "MEAN_MOTION": 14.4471095, "ECCENTRICITY": 0.0264179, "INCLINATION": 98.3711, "RA_OF_ASC_NODE": 32.43, "ARG_OF_PERICENTER": 319.2307, "MEAN_ANOMALY": 38.9377, "EPHEMERIS_TYPE": 0, "CLASSIFICATION_TYPE": "U", "NORAD_CAT_ID": 30887, "ELEMENT_SET_NO": 999, "REV_AT_EPOCH": 97979, "BSTAR": 0.00071914, "MEAN_MOTION_DOT": 3.776e-05, "MEAN_MOTION_DDOT": 0}, "tle": {"line1": "1 30887U 99025AXZ 25336.42217302  .00003776  00000+0  71914-3 0  9998", "line2": "2 30887  98.3711  32.4300 0264179 319.2307  38.9377 14.44710950979796"}}, "geometry": {"type": "Point", "coordinates": [41.332500794063755, -44.88263438155238]}}]}